STARLINK-36656          
1 67841U 26033W   26067.92248444  .00428786  00000+0  19287-2 0  9991
2 67841  42.9976 276.0232 0001333 311.7853  48.2905 15.82136940  4501
STARLINK-36653          
1 67842U 26033X   26067.92173107  .00277700  00000+0  12743-2 0  9993
2 67842  42.9975 276.0165 0001421 262.9352  97.1358 15.82102659  4500
STARLINK-36589          
1 67843U 26033Y   26067.92098096  .00318089  00000+0  14515-2 0  9992
2 67843  42.9973 276.0103 0001845 279.7271  80.3392 15.82116775  4503
STARLINK-36598          
1 67844U 26033Z   26067.92023219  .00310685  00000+0  14195-2 0  9996
2 67844  42.9974 276.0041 0001980 282.7897  77.2753 15.82109203  4508
STARLINK-36606          
1 67845U 26033AA  26067.91948088  .00237905  00000+0  10975-2 0  9991
2 67845  42.9977 275.9973 0001836 276.6387  83.4275 15.82095200  4509
STARLINK-36658          
1 67846U 26033AB  26067.91873146  .00333627  00000+0  15188-2 0  9993
2 67846  42.9976 275.9916 0002096 277.6576  82.4058 15.82125975  4507
STARLINK-36618          
1 67847U 26033AC  26067.91668981  .00306957  43129-4  93375-3 0  9998
2 67847  42.9829 273.8511 0001845 301.1628 176.3430 15.91260216  4544
STARLINK-36660          
1 67848U 26033AD  26067.91798404  .00209696  00000+0  97171-3 0  9999
2 67848  42.9975 275.9857 0001710 275.0300  85.0376 15.82076091  4507
STARLINK-36602          
1 67849U 26033AE  26067.72783492  .00344841  00000+0  15687-2 0  9993
2 67849  42.9979 277.1393 0001836 296.6499  63.4185 15.82112730  4473
STARLINK-36840          
1 67850U 26034A   26067.90977223  .00379448  00000+0  18297-2 0  9994
2 67850  53.1584 215.2661 0000766 120.4004 239.7095 15.81026806  3811
STARLINK-36348          
1 67851U 26034B   26067.90902641  .00282935  00000+0  13841-2 0  9991
2 67851  53.1588 215.2610 0001227  49.5704 310.5426 15.80973855  3811
STARLINK-36276          
1 67852U 26034C   26067.90826836  .00284344  00000+0  13892-2 0  9995
2 67852  53.1586 215.2556 0000299  36.7782 323.3262 15.80997917  3816
STARLINK-36785          
1 67853U 26034D   26067.84430378  .00269668  00000+0  13210-2 0  9997
2 67853  53.1589 215.5674 0000689 103.3824 256.7275 15.80981210  3806
STARLINK-36608          
1 67854U 26034E   26067.90677364  .00246244  00000+0  12103-2 0  9998
2 67854  53.1588 215.2453 0001099  50.7582 309.3538 15.80973757  3804
STARLINK-36838          
1 67855U 26034F   26067.90602186  .00322311  00000+0  15678-2 0  9999
2 67855  53.1588 215.2396 0001023  47.8903 312.2206 15.80991306  3818
STARLINK-36843          
1 67856U 26034G   26067.90452071  .00376983  00000+0  18178-2 0  9998
2 67856  53.1585 215.2300 0000784 119.0740 241.0362 15.81034292  3810
