[{"OBJECT_NAME":"STARLINK-36656","OBJECT_ID":"2026-033W","EPOCH":"2026-03-08T22:08:22.655616","MEAN_MOTION":15.8213694,"ECCENTRICITY":0.00013333,"INCLINATION":42.9976,"RA_OF_ASC_NODE":276.0232,"ARG_OF_PERICENTER":311.7853,"MEAN_ANOMALY":48.2905,"EPHEMERIS_TYPE":0,"CLASSIFICATION_TYPE":"U","NORAD_CAT_ID":67841,"ELEMENT_SET_NO":999,"REV_AT_EPOCH":450,"BSTAR":0.0019287251,"MEAN_MOTION_DOT":0.00428786,"MEAN_MOTION_DDOT":0},{"OBJECT_NAME":"STARLINK-36653","OBJECT_ID":"2026-033X","EPOCH":"2026-03-08T22:07:17.564448","MEAN_MOTION":15.82102659,"ECCENTRICITY":0.0001421,"INCLINATION":42.9975,"RA_OF_ASC_NODE":276.0165,"ARG_OF_PERICENTER":262.9352,"MEAN_ANOMALY":97.1358,"EPHEMERIS_TYPE":0,"CLASSIFICATION_TYPE":"U","NORAD_CAT_ID":67842,"ELEMENT_SET_NO":999,"REV_AT_EPOCH":450,"BSTAR":0.0012743179,"MEAN_MOTION_DOT":0.002777,"MEAN_MOTION_DDOT":0},{"OBJECT_NAME":"STARLINK-36589","OBJECT_ID":"2026-033Y","EPOCH":"2026-03-08T22:06:12.754944","MEAN_MOTION":15.82116775,"ECCENTRICITY":0.0001845,"INCLINATION":42.9973,"RA_OF_ASC_NODE":276.0103,"ARG_OF_PERICENTER":279.7271,"MEAN_ANOMALY":80.3392,"EPHEMERIS_TYPE":0,"CLASSIFICATION_TYPE":"U","NORAD_CAT_ID":67843,"ELEMENT_SET_NO":999,"REV_AT_EPOCH":450,"BSTAR":0.0014514719,"MEAN_MOTION_DOT":0.00318089,"MEAN_MOTION_DDOT":0},{"OBJECT_NAME":"STARLINK-36598","OBJECT_ID":"2026-033Z","EPOCH":"2026-03-08T22:05:08.061216","MEAN_MOTION":15.82109203,"ECCENTRICITY":0.000198,"INCLINATION":42.9974,"RA_OF_ASC_NODE":276.0041,"ARG_OF_PERICENTER":282.7897,"MEAN_ANOMALY":77.2753,"EPHEMERIS_TYPE":0,"CLASSIFICATION_TYPE":"U","NORAD_CAT_ID":67844,"ELEMENT_SET_NO":999,"REV_AT_EPOCH":450,"BSTAR":0.0014194658,"MEAN_MOTION_DOT":0.00310685,"MEAN_MOTION_DDOT":0},{"OBJECT_NAME":"STARLINK-36606","OBJECT_ID":"2026-033AA","EPOCH":"2026-03-08T22:04:03.148032","MEAN_MOTION":15.820952,"ECCENTRICITY":0.00018363,"INCLINATION":42.9977,"RA_OF_ASC_NODE":275.9973,"ARG_OF_PERICENTER":276.6387,"MEAN_ANOMALY":83.4275,"EPHEMERIS_TYPE":0,"CLASSIFICATION_TYPE":"U","NORAD_CAT_ID":67845,"ELEMENT_SET_NO":999,"REV_AT_EPOCH":450,"BSTAR":0.0010975056,"MEAN_MOTION_DOT":0.00237905,"MEAN_MOTION_DDOT":0},{"OBJECT_NAME":"STARLINK-36658","OBJECT_ID":"2026-033AB","EPOCH":"2026-03-08T22:02:58.398144","MEAN_MOTION":15.82125975,"ECCENTRICITY":0.00020969,"INCLINATION":42.9976,"RA_OF_ASC_NODE":275.9916,"ARG_OF_PERICENTER":277.6576,"MEAN_ANOMALY":82.4058,"EPHEMERIS_TYPE":0,"CLASSIFICATION_TYPE":"U","NORAD_CAT_ID":67846,"ELEMENT_SET_NO":999,"REV_AT_EPOCH":450,"BSTAR":0.0015188351,"MEAN_MOTION_DOT":0.00333627,"MEAN_MOTION_DDOT":0},{"OBJECT_NAME":"STARLINK-36618","OBJECT_ID":"2026-033AC","EPOCH":"2026-03-08T22:00:01.999584","MEAN_MOTION":15.91260216,"ECCENTRICITY":0.00018455,"INCLINATION":42.9829,"RA_OF_ASC_NODE":273.8511,"ARG_OF_PERICENTER":301.1628,"MEAN_ANOMALY":176.343,"EPHEMERIS_TYPE":0,"CLASSIFICATION_TYPE":"U","NORAD_CAT_ID":67847,"ELEMENT_SET_NO":999,"REV_AT_EPOCH":454,"BSTAR":0.00093375047,"MEAN_MOTION_DOT":0.00306957,"MEAN_MOTION_DDOT":4.3129416e-5},{"OBJECT_NAME":"STARLINK-36660","OBJECT_ID":"2026-033AD","EPOCH":"2026-03-08T22:01:53.821056","MEAN_MOTION":15.82076091,"ECCENTRICITY":0.00017101,"INCLINATION":42.9975,"RA_OF_ASC_NODE":275.9857,"ARG_OF_PERICENTER":275.03,"MEAN_ANOMALY":85.0376,"EPHEMERIS_TYPE":0,"CLASSIFICATION_TYPE":"U","NORAD_CAT_ID":67848,"ELEMENT_SET_NO":999,"REV_AT_EPOCH":450,"BSTAR":0.00097171483,"MEAN_MOTION_DOT":0.00209696,"MEAN_MOTION_DDOT":0},{"OBJECT_NAME":"STARLINK-36602","OBJECT_ID":"2026-033AE","EPOCH":"2026-03-08T17:28:04.937088","MEAN_MOTION":15.8211273,"ECCENTRICITY":0.00018361,"INCLINATION":42.9979,"RA_OF_ASC_NODE":277.1393,"ARG_OF_PERICENTER":296.6499,"MEAN_ANOMALY":63.4185,"EPHEMERIS_TYPE":0,"CLASSIFICATION_TYPE":"U","NORAD_CAT_ID":67849,"ELEMENT_SET_NO":999,"REV_AT_EPOCH":447,"BSTAR":0.0015687288,"MEAN_MOTION_DOT":0.00344841,"MEAN_MOTION_DDOT":0},{"OBJECT_NAME":"STARLINK-36840","OBJECT_ID":"2026-034A","EPOCH":"2026-03-08T21:50:04.320672","MEAN_MOTION":15.81026806,"ECCENTRICITY":7.662e-5,"INCLINATION":53.1584,"RA_OF_ASC_NODE":215.2661,"ARG_OF_PERICENTER":120.4004,"MEAN_ANOMALY":239.7095,"EPHEMERIS_TYPE":0,"CLASSIFICATION_TYPE":"U","NORAD_CAT_ID":67850,"ELEMENT_SET_NO":999,"REV_AT_EPOCH":381,"BSTAR":0.0018297126,"MEAN_MOTION_DOT":0.00379448,"MEAN_MOTION_DDOT":0},{"OBJECT_NAME":"STARLINK-36348","OBJECT_ID":"2026-034B","EPOCH":"2026-03-08T21:48:59.881824","MEAN_MOTION":15.80973855,"ECCENTRICITY":0.00012272,"INCLINATION":53.1588,"RA_OF_ASC_NODE":215.261,"ARG_OF_PERICENTER":49.5704,"MEAN_ANOMALY":310.5426,"EPHEMERIS_TYPE":0,"CLASSIFICATION_TYPE":"U","NORAD_CAT_ID":67851,"ELEMENT_SET_NO":999,"REV_AT_EPOCH":381,"BSTAR":0.0013841251,"MEAN_MOTION_DOT":0.00282935,"MEAN_MOTION_DDOT":0},{"OBJECT_NAME":"STARLINK-36276","OBJECT_ID":"2026-034C","EPOCH":"2026-03-08T21:47:54.386304","MEAN_MOTION":15.80997917,"ECCENTRICITY":2.991e-5,"INCLINATION":53.1586,"RA_OF_ASC_NODE":215.2556,"ARG_OF_PERICENTER":36.7782,"MEAN_ANOMALY":323.3262,"EPHEMERIS_TYPE":0,"CLASSIFICATION_TYPE":"U","NORAD_CAT_ID":67852,"ELEMENT_SET_NO":999,"REV_AT_EPOCH":381,"BSTAR":0.0013891577,"MEAN_MOTION_DOT":0.00284344,"MEAN_MOTION_DDOT":0},{"OBJECT_NAME":"STARLINK-36785","OBJECT_ID":"2026-034D","EPOCH":"2026-03-08T20:15:47.846592","MEAN_MOTION":15.8098121,"ECCENTRICITY":6.891e-5,"INCLINATION":53.1589,"RA_OF_ASC_NODE":215.5674,"ARG_OF_PERICENTER":103.3824,"MEAN_ANOMALY":256.7275,"EPHEMERIS_TYPE":0,"CLASSIFICATION_TYPE":"U","NORAD_CAT_ID":67853,"ELEMENT_SET_NO":999,"REV_AT_EPOCH":380,"BSTAR":0.0013209609,"MEAN_MOTION_DOT":0.00269668,"MEAN_MOTION_DDOT":0},{"OBJECT_NAME":"STARLINK-36608","OBJECT_ID":"2026-034E","EPOCH":"2026-03-08T21:45:45.242496","MEAN_MOTION":15.80973757,"ECCENTRICITY":0.00010992,"INCLINATION":53.1588,"RA_OF_ASC_NODE":215.2453,"ARG_OF_PERICENTER":50.7582,"MEAN_ANOMALY":309.3538,"EPHEMERIS_TYPE":0,"CLASSIFICATION_TYPE":"U","NORAD_CAT_ID":67854,"ELEMENT_SET_NO":999,"REV_AT_EPOCH":380,"BSTAR":0.0012102586,"MEAN_MOTION_DOT":0.00246244,"MEAN_MOTION_DDOT":0},{"OBJECT_NAME":"STARLINK-36838","OBJECT_ID":"2026-034F","EPOCH":"2026-03-08T21:44:40.288704","MEAN_MOTION":15.80991306,"ECCENTRICITY":0.00010238,"INCLINATION":53.1588,"RA_OF_ASC_NODE":215.2396,"ARG_OF_PERICENTER":47.8903,"MEAN_ANOMALY":312.2206,"EPHEMERIS_TYPE":0,"CLASSIFICATION_TYPE":"U","NORAD_CAT_ID":67855,"ELEMENT_SET_NO":999,"REV_AT_EPOCH":381,"BSTAR":0.0015677553,"MEAN_MOTION_DOT":0.00322311,"MEAN_MOTION_DDOT":0},{"OBJECT_NAME":"STARLINK-36843","OBJECT_ID":"2026-034G","EPOCH":"2026-03-08T21:42:30.589344","MEAN_MOTION":15.81034292,"ECCENTRICITY":7.848e-5,"INCLINATION":53.1585,"RA_OF_ASC_NODE":215.23,"ARG_OF_PERICENTER":119.074,"MEAN_ANOMALY":241.0362,"EPHEMERIS_TYPE":0,"CLASSIFICATION_TYPE":"U","NORAD_CAT_ID":67856,"ELEMENT_SET_NO":999,"REV_AT_EPOCH":381,"BSTAR":0.0018177521,"MEAN_MOTION_DOT":0.00376983,"MEAN_MOTION_DDOT":0}]
